#dP2021  5 18  6  0  0.00000000      96 __u+U ITR00 EXT  IAC
## 2158 194400.00000000   900.00000000 59352 0.2500000000000
+  116   C06C07C08C09C10C11C12C13C14C16C19C20C21C22C23C24C25
+        C26C27C28C29C30C32C33C34C35C36C37C38C39C40C41C42C43
+        C44C45C46E01E02E03E04E05E07E08E09E11E12E13E14E15E18
+        E19E21E24E25E26E27E30E31E33E36G01G02G03G04G05G06G07
+        G08G09G10G12G13G14G15G16G17G18G19G20G21G22G23G24G25
+        G26G27G28G29G30G31G32J01J02J03R01R02R03R04R05R07R08
+        R09R11R12R13R14R15R16R17R18R19R20R21R22R24  0  0  0
++         9  9  9 10  8  8  9 10  7  9  9  8  9  9  9  8  7
++         9  8  8  8  9  7  9  9  9 10  8 10 10 12  8 10 10
++         8  8  9  9  7  8  8  8  8  9  7  8  9  7  8  8  8
++         8  8  9  7  7  8  8  7  9  8  8  7  8  9  8  8  9
++         7  9  8  8  7  8  8  8  9  7  8  7  8  8  8  8  8
++         8  7  8  8  8  7  8  9 10  9  9  9  9  8  8  9  8
++         9  9 10  9 10  9  8  7  8 10  9  8  9  9  0  0  0
%c M  cc GPS ccc cccc cccc cccc cccc ccccc ccccc ccccc ccccc
%c cc cc ccc ccc cccc cccc cccc cccc ccccc ccccc ccccc ccccc
%f  0.0000000  0.000000000  0.00000000000  0.000000000000000
%f  0.0000000  0.000000000  0.00000000000  0.000000000000000
%i    0    0    0    0      0      0      0      0         0
%i    0    0    0    0      0      0      0      0         0
/* IAC                                ULTRA-RAPID PREDICTION
/* S/V CLOCKS ARE ALIGNED TO GNSS TIME                      
/* G:C1WC2W R:C1PC2P E:C1XC5X C:C2IC6I J:C1CC2S             
/* PCV:IGS14_2148 OL/AL:FES2004  NONE     YN ORB:CoN CLK:CoN
*  2021 05 18  7 15  0.00000000
PC06 -16650.183806  20042.089670 -32759.882359    397.717166
PC07 -22281.879358  34964.874907   6168.514054    131.102885
PC08  -5880.737053  33005.875865  25908.822352   -890.526418
PC09    576.084492  25224.011158 -33419.096134    515.408282
PC10  -9660.420879  36266.671311  18971.343949    -41.283780
PC11  -8592.219484 -17481.661037 -19912.198417    347.461237
PC12  11322.850509 -11615.540605 -22680.831798    879.301657
PC13   2689.647599  39457.169675  15060.718973    265.133464
PC14   2143.723221 -19676.860029  19726.176267    761.745298
PC16 -12649.540420  21313.219073 -34004.961900   -844.310818
PC19   7616.578979  14165.990809 -22771.373545    839.035812
PC20  -9945.199749  21531.854980 -14655.402809   -912.208171
PC21  22472.953459 -16355.828684  -2631.891676   -940.354488
PC22  21340.809932  -1630.788432 -17916.221392   -955.644134
PC23 -16516.344429  -8110.082414 -20975.871144   -910.114350
PC24   2345.264089 -26247.237509   9145.789256   -855.042332
PC25 -11107.888056 -23931.647675  -9066.604791   -915.311546
PC26  12452.597549 -13851.924872  20763.177358    905.461584
PC27 -19985.470692   5943.466748  18535.047738    533.500594
PC28 -26573.457829  -7768.991745   3487.569796    -73.114128
PC29  18194.666675  16229.605828  13561.196006    393.792535
PC30  -1699.457556  16071.212327  22739.735599    467.379290
PC32 -22357.184723  16471.126870   2697.816457   -932.342257
PC33  -7620.700482 -14241.694840  22769.732394   -937.894585
PC34    872.018543 -16347.156397 -22614.944271   -670.932684
PC35  26796.713911   7046.142600  -3163.225714   -275.585969
PC36  10370.741785  24385.936687   8768.232236   -726.687065
PC37 -13132.490899  12694.031188 -21084.681021   -890.820865
PC38  -3499.481102  36318.293298  21258.286389    149.453965
PC39  -8525.522375  22857.421783 -34378.850548     31.142790
PC40 -18632.780723  33527.531922  17356.504971    162.059952
PC41 -21206.451240   1329.309981  18144.304365   -944.460076
PC42  10554.777145 -21670.318194  14128.367668   -914.911885
PC43 -17671.457114 -16533.210763 -13929.244055   -735.401460
PC44  19913.936577  -6624.339878 -18386.642530    193.647282
PC45  16436.447676   7976.886426  21102.994271    443.141009
PC46  -1562.035313  26617.071401  -8284.947885    265.771048
PE01  13557.680631  10690.375167  24041.977145  -1110.180219
PE02 -13625.770235 -10542.987755 -24071.243840    219.850363
PE03 -24252.589749  -6160.426626  15805.923912   -432.142660
PE04  28630.489214  -7367.808976   1530.936718   -773.329086
PE05  -5569.402733 -16263.676599  24104.829952   -280.084675
PE07 -16153.197695  16770.574151 -18256.608565   -539.033921
PE08 -28517.475469   7688.507458  -1824.275028   6000.327917
PE09  15944.084621 -16796.277194  18454.897713   5664.022595
PE11   4842.859895 -17371.543960 -23486.941342   5966.267455
PE12  19843.617691    327.946938 -21955.857864   5205.052667
PE13  -5144.069640  17015.912147  23666.493927    416.548008
PE14  23105.090907 -13602.908268 -17573.174872  -1434.938196
PE15 -19797.412544   -300.471064  22009.652218    813.674577
PE18 -21222.256437   6601.503341   9406.269536  -1570.779918
PE19  22700.504161   7531.654124 -17428.266121    279.722825
PE21   1655.471420  25987.963881  14070.264793   -665.548391
PE24  12254.861069 -26429.085788   5170.398550   -906.202709
PE25  -1512.566044 -26081.702142 -13910.461072   -534.171165
PE26  12975.544027  24393.764082  10615.235040   1797.623993
PE27 -11694.136735  26833.735606  -4422.924593    -34.831161
PE30 -18223.768844  10815.252502 -20681.289858   2936.359688
PE31  18081.853636 -11893.764811  20198.024359   -481.279310
PE33  22763.441504  17401.149111  -7401.932002   -468.727015
PE36 -12525.621434 -24293.310975 -11379.173847   -208.636623
PG01 -18258.513643  -8019.271559  17458.586173    685.792755
PG02  13292.295745  22784.464244   3483.731310   -605.160065
PG03 -17201.970697   2979.390240  19897.679684   -167.081543
PG04 -26530.309723  -1231.894117   1352.600520   -196.715677
PG05  10304.990801  12652.881848 -21079.438760    -42.272790
PG06   3885.027222  22914.326092  12860.842988     16.913848
PG07 -13626.420490   6893.237376 -21391.733635    154.031729
PG08 -23647.460199  -6392.298182 -10649.336751    -21.644520
PG09 -23822.609854   7468.744816  -9159.915068   -346.157153
PG10  11266.703382 -23805.086299   2139.993659   -124.242131
PG12  16467.264920    227.647941  20552.419766    -42.637825
PG13  16726.734976  13042.956304 -16201.436545    133.459938
PG14 -12705.361502  23245.207700   1678.849234     84.223120
PG15  24312.167458   4534.837035 -10504.577294   -148.618189
PG16  -5330.164985 -16616.809288 -20128.809624   -326.993844
PG17 -11372.283449  13237.495149  20448.503946    444.202542
PG18  10954.315539 -10806.207476 -21652.172025    350.086578
PG19  -1736.007108  14551.892704  21863.088943      1.521267
PG20  15389.685439   3503.886162 -21341.727498    522.074818
PG21 -20131.008001 -13452.969832  12170.628437    118.921154
PG22 -14014.260665  -7538.673946  21462.243517   -611.452958
PG23  16570.270690 -18720.819279  -8915.257094    105.714386
PG24  20049.754287  11653.856152  13048.183866     84.473750
PG25  18152.894770 -12911.375696  13991.944614    139.310197
PG26    619.849285 -22960.660690 -13157.661490     86.794601
PG27 -14639.589810 -12345.434594 -18737.966910   -132.012028
PG28  -9161.430351  23778.248136   8400.406340    569.503597
PG29  24440.472943  -4946.991527  -9264.103482   -348.988096
PG30  -4148.792699  19088.337574 -17831.144633   -427.541070
PG31  -5511.734163 -23712.780888   9961.522013   -117.939887
PG32   8186.497211 -14756.306830  20582.562223     20.992780
PJ01 -36366.313997  20229.966189  -2002.022311   -380.653191
PJ02 -21811.778405  32078.747273 -11781.271510      0.049749
PJ03 -28253.281005  22283.602784  27090.309092     -5.727908
PR01  -3334.487606  13781.249840 -21192.919287     79.628085
PR02  15894.856923   1951.082529 -19787.830632    479.051252
PR03  22885.807211  -9553.671219  -5812.000045     36.151116
PR04  16944.005023 -15408.687208  11260.260093     87.300269
PR05   1585.190253 -12690.271716  22083.180803     71.955983
PR07 -22960.889117   9848.334042   5294.586721    -42.449243
PR08 -16929.269629  15450.318029 -11154.737366    -59.054201
PR09  -9700.475926 -12873.266459 -19778.939328     -6.561145
PR11  -5723.059643  21657.794582 -12178.221101     -4.916196
PR12   2484.899370  24730.076908   5804.990861    229.850255
PR13   9321.979435  13435.823874  19559.088709    -54.901759
PR14  10776.417816  -6467.374049  22209.987206     64.394369
PR15   5921.495478 -21858.756106  11759.959576    103.777209
PR16  -3590.602032 -24259.422603  -6802.124491    -15.205145
PR17  19679.416769   3488.209125 -15867.676633    425.025538
PR18   6935.458179  -7966.176507 -23206.631659     76.926564
PR19  -8246.890809 -15243.033288 -18721.382085   -144.155741
PR20 -21113.661728 -14314.379663  -1119.597643    -49.301753
PR21 -18990.435679  -2738.073020  16791.522927   -209.785175
PR22  -6089.518618   8441.985944  23269.765092   -113.243930
PR24  21502.898861  13725.875882    404.399144     43.087519
EOF
